STARLINK-35496          
1 66114U 25237A   25323.91668981  .00032216  00000+0  81203-3 0  9990
2 66114  53.1595 195.0188 0000863 148.0302 302.0101 15.39617765  5805
STARLINK-35428          
1 66115U 25237B   25323.91668981  .00015702  00000+0  40193-3 0  9995
2 66115  53.1597 195.1715 0001356  96.3927 276.5107 15.39604085  5803
STARLINK-35573          
1 66116U 25237C   25322.40436390  .00101610  00000+0  18139-2 0  9994
2 66116  53.1611 202.1102 0002430  37.3147 322.8030 15.49267070  5498
STARLINK-35572          
1 66117U 25237D   25323.91668981  .00015133  00000+0  38774-3 0  9997
2 66117  53.1599 195.1205 0001163  91.4636 307.1983 15.39605005  5806
STARLINK-35468          
1 66118U 25237E   25323.91902613  .00037871  00000+0  95179-3 0  9996
2 66118  53.1603 195.2109 0001115  96.0958 264.0174 15.39628601  5723
STARLINK-35547          
1 66119U 25237F   25323.91668981  .00017585  00000+0  44880-3 0  9997
2 66119  53.1593 194.9658 0001038 101.0961  14.8196 15.39605455  5808
STARLINK-35553          
1 66120U 25237G   25323.91668981  .00015557  00000+0  39882-3 0  9992
2 66120  53.1599 195.0690 0001394  92.4391 331.9533 15.39564868  5809
STARLINK-35631          
1 66121U 25237H   25323.91668981 -.02074077  00000+0 -49708-1 0  9995
2 66121  53.1590 194.8816 0001459  83.8462  74.3983 15.44436705  5804
STARLINK-35653          
1 66122U 25237J   25322.98283464  .00039477  00000+0  71267-3 0  9999
2 66122  53.1598 199.3179 0001121  96.3296 263.7841 15.49372472  5582
STARLINK-35628          
1 66123U 25237K   25323.36956669  .00088752  00000+0  15865-2 0  9998
2 66123  53.1606 197.4668 0001466  84.3380 275.7796 15.49294738  5645
STARLINK-35645          
1 66124U 25237L   25323.36923111  .00106143  00000+0  18924-2 0  9999
2 66124  53.1599 197.4645 0001693  88.5208 271.5995 15.49282778  5645
STARLINK-35649          
1 66125U 25237M   25323.36888332  .00110961  00000+0  19761-2 0  9998
2 66125  53.1607 197.4623 0001413  91.9949 268.1222 15.49292289  5645
STARLINK-35658          
1 66126U 25237N   25323.36852399  .00068928  00000+0  12353-2 0  9998
2 66126  53.1600 197.4580 0001363  87.4361 272.6804 15.49335063  5647
STARLINK-35629          
1 66127U 25237P   25323.36818098  .00067481  00000+0  12101-2 0  9991
2 66127  53.1596 197.4572 0001420  83.4733 276.6438 15.49328309  5648
STARLINK-35612          
1 66128U 25237Q   25323.91471770  .00035664  00000+0  89720-3 0  9995
2 66128  53.1595 195.1803 0001220  92.9555 267.1589 15.39627368  5722
STARLINK-35632          
1 66129U 25237R   25323.91668981  .00016193  00000+0  41417-3 0  9995
2 66129  53.1599 195.1202 0001197  96.8765 299.9230 15.39603468  5809
STARLINK-35637          
1 66130U 25237S   25323.91668981  .00016032  00000+0  41011-3 0  9999
2 66130  53.1600 195.0690 0001014  80.1358 342.4096 15.39606253  5805
STARLINK-35630          
1 66131U 25237T   25323.91668981  .00015496  00000+0  39688-3 0  9990
2 66131  53.1598 195.0181 0000847 100.6880 347.6197 15.39598042  5803
STARLINK-34412          
1 66132U 25237U   25323.91668981  .00017054  00000+0  43554-3 0  9990
2 66132  53.1595 194.9671 0001386 103.2452  10.8094 15.39608352  5728
STARLINK-35520          
1 66133U 25237V   25323.91668981  .00025295  00000+0  64080-3 0  9994
2 66133  53.1591 194.9157 0000868 121.1285  18.6416 15.39593543  5809
STARLINK-35525          
1 66134U 25237W   25323.91668981 -.00921859  00000+0 -24632-1 0  9995
2 66134  53.1591 194.8658 0000523  58.7057 106.6010 15.40213256  5805
STARLINK-34852          
1 66135U 25237X   25323.91668981 -.02078367  00000+0 -50900-1 0  9992
2 66135  53.1598 194.8266 0001496  87.7643  96.6179 15.43812500  5771
STARLINK-35592          
1 66136U 25237Y   25323.94566045  .00083557  00000+0  14915-2 0  9994
2 66136  53.1601 194.6589 0001575 102.6642 257.4543 15.49363715  5730
STARLINK-35576          
1 66137U 25237Z   25323.94531695  .00081593  00000+0  14572-2 0  9995
2 66137  53.1594 194.6559 0001498 101.5341 258.5836 15.49360360  5737
STARLINK-35623          
1 66138U 25237AA  25323.94497360  .00056631  00000+0  10170-2 0  9991
2 66138  53.1607 194.6549 0001925  92.0362 268.0868 15.49362266  5732
STARLINK-35549          
1 66139U 25237AB  25323.94428689  .00078957  00000+0  14110-2 0  9993
2 66139  53.1594 194.6493 0001530 100.0977 260.0205 15.49357920  5738
STARLINK-35625          
1 66140U 25237AC  25323.36411366  .00088429  00000+0  15882-2 0  9997
2 66140  53.1603 197.4281 0004454  49.8515 310.2884 15.49156067  5643
STARLINK-35603          
1 66141U 25237AD  25323.94394340  .00072833  00000+0  13043-2 0  9993
2 66141  53.1589 194.6480 0001601  97.9067 262.2124 15.49332604  5730
TJS-20                  
1 66142U 25238A   25323.53121814  .00000040  00000+0  00000+0 0  9991
2 66142   5.9399 300.4225 0001420 101.8830 270.2481  1.00269575   234
CZ-5 R/B                
1 66143U 25238B   25323.74163589  .00070597  14238-5  16997-2 0  9993
2 66143  16.2704 264.2520 7587252 181.1096 174.9808  1.94789200   541
SPAINSAT NG II          
1 66144U 25239A   25321.84156371 -.00000354  00000+0  00000+0 0  9991
2 66144  19.9038 243.4991 7869625 184.0240 159.6654  1.04198281   298
STARLINK-35318          
1 66146U 25240A   25323.91668981  .00014048  00000+0  36061-3 0  9994
2 66146  53.1595 214.2636 0001368  78.4821 136.9095 15.39613943  5287
STARLINK-33948          
1 66147U 25240B   25323.20664153 -.00002209  00000+0 -31762-4 0  9996
2 66147  53.1591 217.3645 0000729  92.4248 267.6845 15.49238093  5103
STARLINK-35081          
1 66148U 25240C   25323.90948751  .00041555  00000+0  70309-3 0  9997
2 66148  53.1596 213.9297 0000772 136.3036 223.8036 15.51185298  5168
STARLINK-35601          
1 66149U 25240D   25323.91668981  .00011913  00000+0  30742-3 0  9995
2 66149  53.1589 214.1022 0001220  87.8874 208.4612 15.39612145  5238
STARLINK-35605          
1 66150U 25240E   25323.91518850  .00073244  00000+0  13119-2 0  9999
2 66150  53.1595 213.9655 0001091 100.2442 259.8690 15.49326134  5162
STARLINK-35540          
1 66151U 25240F   25323.97935188  .00072126  00000+0  12917-2 0  9996
2 66151  53.1596 213.6544 0000907  92.0612 268.0501 15.49336504  5176
STARLINK-35455          
1 66152U 25240G   25323.91668981  .00015974  00000+0  40859-3 0  9990
2 66152  53.1592 214.2113 0001346  91.2537 149.8888 15.39611782  5231
STARLINK-34752          
1 66153U 25240H   25323.91668981  .00010785  00000+0  27934-3 0  9995
2 66153  53.1589 214.0514 0000976  88.4194 233.6874 15.39608521  5230
STARLINK-34625          
1 66154U 25240J   25323.97854638  .00006326  00000+0  12528-3 0  9997
2 66154  53.1594 213.6497 0000854  89.2046 270.9061 15.48461844  5228
STARLINK-35580          
1 66155U 25240K   25323.97797890  .00056730  00000+0  10199-2 0  9999
2 66155  53.1597 213.6449 0001220  95.3552 264.7597 15.49330151  5173
STARLINK-35621          
1 66156U 25240L   25323.91668981 -.00449383  00000+0 -11794-1 0  9995
2 66156  53.1592 213.9988 0001654 100.6711 247.0967 15.39887928  5238
STARLINK-35594          
1 66157U 25240M   25323.91278483  .00039916  00000+0  72174-3 0  9996
2 66157  53.1596 213.9485 0001473  90.7063 269.4115 15.49322259  5160
STARLINK-35587          
1 66158U 25240N   25323.91668981  .00013669  00000+0  35118-3 0  9997
2 66158  53.1589 214.1509 0001030  94.7308 175.8637 15.39612616  5233
STARLINK-35586          
1 66159U 25240P   25323.91209637  .00044089  00000+0  79586-3 0  9994
2 66159  53.1596 213.9435 0001232 101.8797 258.2351 15.49324784  5161
STARLINK-35636          
1 66160U 25240Q   25323.91668981  .00012845  00000+0  33064-3 0  9993
2 66160  53.1590 214.1539 0001344  87.5181 181.2145 15.39612705  5232
STARLINK-35635          
1 66161U 25240R   25323.91668981  .00013908  00000+0  35714-3 0  9999
2 66161  53.1592 214.2047 0001470  85.4332 157.5490 15.39611356  5235
STARLINK-35633          
1 66162U 25240S   25323.88031914  .00056032  00000+0  10076-2 0  9994
2 66162  53.1598 213.7387 0000827  98.5362 261.5741 15.49328824  5169
STARLINK-35607          
1 66163U 25240T   25323.87997493  .00076664  00000+0  13715-2 0  9993
2 66163  53.1598 213.7364 0000813  93.3914 266.7188 15.49339033  5162
STARLINK-35614          
1 66164U 25240U   25323.87928696  .00048163  00000+0  86751-3 0  9997
2 66164  53.1597 213.7300 0001293  86.8698 273.2459 15.49347623  5169
STARLINK-35575          
1 66165U 25240V   25323.87963332  .00060890  00000+0  10936-2 0  9996
2 66165  53.1599 213.7342 0001132  84.3057 275.8081 15.49329052  5167
STARLINK-35624          
1 66166U 25240W   25323.87860093  .00059599  00000+0  10706-2 0  9996
2 66166  53.1597 213.7273 0000674  97.8898 262.2188 15.49331712  5165
STARLINK-35641          
1 66167U 25240X   25323.87894336  .00067251  00000+0  12057-2 0  9999
2 66167  53.1594 213.7286 0000771 112.8430 247.2661 15.49336234  5168
STARLINK-35578          
1 66168U 25240Y   25323.87757039  .00068077  00000+0  12202-2 0  9997
2 66168  53.1595 213.7196 0000741  92.4572 267.6522 15.49336683  5167
STARLINK-35638          
1 66169U 25240Z   25323.87825815  .00053043  00000+0  95456-3 0  9996
2 66169  53.1599 213.7244 0001124  89.6467 270.4671 15.49330844  5163
STARLINK-35585          
1 66170U 25240AA  25323.87722675  .00071006  00000+0  12719-2 0  9997
2 66170  53.1596 213.7172 0001156  87.2283 272.8858 15.49336288  5168
STARLINK-35606          
1 66171U 25240AB  25323.87688401  .00065633  00000+0  11773-2 0  9994
2 66171  53.1597 213.7150 0000833 101.1503 258.9600 15.49330977  5167
STARLINK-35627          
1 66172U 25240AC  25323.87791401  .00060002  00000+0  10777-2 0  9998
2 66172  53.1597 213.7219 0000568  98.5932 261.5141 15.49332497  5163
STARLINK-35634          
1 66173U 25240AD  25323.87653959  .00067235  00000+0  12055-2 0  9990
2 66173  53.1596 213.7132 0000844 102.2577 257.8526 15.49333536  5162
